[{"OBJECT_NAME":"ONEWEB-0404","OBJECT_ID":"2021-132R","EPOCH":"2026-04-12T06:12:15.403104","MEAN_MOTION":13.11416208,"ECCENTRICITY":0.000154,"INCLINATION":87.891,"RA_OF_ASC_NODE":34.1733,"ARG_OF_PERICENTER":81.6168,"MEAN_ANOMALY":278.5135,"EPHEMERIS_TYPE":0,"CLASSIFICATION_TYPE":"U","NORAD_CAT_ID":50484,"ELEMENT_SET_NO":999,"REV_AT_EPOCH":20705,"BSTAR":0.001742,"MEAN_MOTION_DOT":6.3e-06,"MEAN_MOTION_DDOT":0.0},{"OBJECT_NAME":"ONEWEB-0405","OBJECT_ID":"2021-132S","EPOCH":"2026-04-12T02:52:41.036160","MEAN_MOTION":13.18688128,"ECCENTRICITY":0.0001749,"INCLINATION":87.9231,"RA_OF_ASC_NODE":348.573,"ARG_OF_PERICENTER":63.5821,"MEAN_ANOMALY":296.5491,"EPHEMERIS_TYPE":0,"CLASSIFICATION_TYPE":"U","NORAD_CAT_ID":50485,"ELEMENT_SET_NO":999,"REV_AT_EPOCH":21328,"BSTAR":4.5307e-05,"MEAN_MOTION_DOT":3.1e-07,"MEAN_MOTION_DDOT":0.0},{"OBJECT_NAME":"ONEWEB-0406","OBJECT_ID":"2021-132T","EPOCH":"2026-04-12T02:38:25.743552","MEAN_MOTION":13.18685583,"ECCENTRICITY":0.000133,"INCLINATION":87.9219,"RA_OF_ASC_NODE":348.5973,"ARG_OF_PERICENTER":87.8732,"MEAN_ANOMALY":272.2552,"EPHEMERIS_TYPE":0,"CLASSIFICATION_TYPE":"U","NORAD_CAT_ID":50486,"ELEMENT_SET_NO":999,"REV_AT_EPOCH":21291,"BSTAR":-0.00047831,"MEAN_MOTION_DOT":-1.76e-06,"MEAN_MOTION_DDOT":0.0},{"OBJECT_NAME":"ONEWEB-0407","OBJECT_ID":"2021-132U","EPOCH":"2026-04-12T02:28:55.870752","MEAN_MOTION":13.18684558,"ECCENTRICITY":0.0001975,"INCLINATION":87.923,"RA_OF_ASC_NODE":348.5853,"ARG_OF_PERICENTER":79.9699,"MEAN_ANOMALY":280.1656,"EPHEMERIS_TYPE":0,"CLASSIFICATION_TYPE":"U","NORAD_CAT_ID":50487,"ELEMENT_SET_NO":999,"REV_AT_EPOCH":21285,"BSTAR":0.00010183,"MEAN_MOTION_DOT":5.3e-07,"MEAN_MOTION_DDOT":0.0},{"OBJECT_NAME":"ONEWEB-0409","OBJECT_ID":"2021-132V","EPOCH":"2026-04-12T06:09:49.084704","MEAN_MOTION":13.11416096,"ECCENTRICITY":0.0001593,"INCLINATION":87.8919,"RA_OF_ASC_NODE":34.1571,"ARG_OF_PERICENTER":77.9459,"MEAN_ANOMALY":282.1848,"EPHEMERIS_TYPE":0,"CLASSIFICATION_TYPE":"U","NORAD_CAT_ID":50488,"ELEMENT_SET_NO":999,"REV_AT_EPOCH":20694,"BSTAR":0.0016815,"MEAN_MOTION_DOT":6.09e-06,"MEAN_MOTION_DDOT":0.0},{"OBJECT_NAME":"ONEWEB-0412","OBJECT_ID":"2021-132W","EPOCH":"2026-04-12T02:12:18.447552","MEAN_MOTION":13.18685823,"ECCENTRICITY":0.0001974,"INCLINATION":87.9219,"RA_OF_ASC_NODE":348.5995,"ARG_OF_PERICENTER":87.6902,"MEAN_ANOMALY":272.4456,"EPHEMERIS_TYPE":0,"CLASSIFICATION_TYPE":"U","NORAD_CAT_ID":50489,"ELEMENT_SET_NO":999,"REV_AT_EPOCH":21294,"BSTAR":-0.00053974,"MEAN_MOTION_DOT":-2e-06,"MEAN_MOTION_DDOT":0.0},{"OBJECT_NAME":"ONEWEB-0413","OBJECT_ID":"2021-132X","EPOCH":"2026-04-12T02:19:26.315904","MEAN_MOTION":13.18684043,"ECCENTRICITY":0.0002062,"INCLINATION":87.9217,"RA_OF_ASC_NODE":348.6009,"ARG_OF_PERICENTER":84.398,"MEAN_ANOMALY":275.7387,"EPHEMERIS_TYPE":0,"CLASSIFICATION_TYPE":"U","NORAD_CAT_ID":50490,"ELEMENT_SET_NO":999,"REV_AT_EPOCH":21288,"BSTAR":0.0001115,"MEAN_MOTION_DOT":5.7e-07,"MEAN_MOTION_DDOT":0.0},{"OBJECT_NAME":"ONEWEB-0414","OBJECT_ID":"2021-132Y","EPOCH":"2026-04-12T01:58:03.683712","MEAN_MOTION":13.18684234,"ECCENTRICITY":0.0001761,"INCLINATION":87.9227,"RA_OF_ASC_NODE":348.5789,"ARG_OF_PERICENTER":86.2814,"MEAN_ANOMALY":273.852,"EPHEMERIS_TYPE":0,"CLASSIFICATION_TYPE":"U","NORAD_CAT_ID":50491,"ELEMENT_SET_NO":999,"REV_AT_EPOCH":21291,"BSTAR":0.00012064999999999999,"MEAN_MOTION_DOT":6e-07,"MEAN_MOTION_DDOT":0.0},{"OBJECT_NAME":"ONEWEB-0417","OBJECT_ID":"2021-132Z","EPOCH":"2026-04-12T02:09:55.771776","MEAN_MOTION":13.18687916,"ECCENTRICITY":0.0001535,"INCLINATION":87.922,"RA_OF_ASC_NODE":348.6024,"ARG_OF_PERICENTER":81.56,"MEAN_ANOMALY":278.5706,"EPHEMERIS_TYPE":0,"CLASSIFICATION_TYPE":"U","NORAD_CAT_ID":50492,"ELEMENT_SET_NO":999,"REV_AT_EPOCH":21289,"BSTAR":-3.6203000000000006e-05,"MEAN_MOTION_DOT":-1e-08,"MEAN_MOTION_DDOT":0.0},{"OBJECT_NAME":"ONEWEB-0418","OBJECT_ID":"2021-132AA","EPOCH":"2026-04-12T02:23:59.830656","MEAN_MOTION":13.18687581,"ECCENTRICITY":0.0001397,"INCLINATION":87.9227,"RA_OF_ASC_NODE":348.5937,"ARG_OF_PERICENTER":82.7165,"MEAN_ANOMALY":277.4126,"EPHEMERIS_TYPE":0,"CLASSIFICATION_TYPE":"U","NORAD_CAT_ID":50493,"ELEMENT_SET_NO":999,"REV_AT_EPOCH":21295,"BSTAR":7.3456e-05,"MEAN_MOTION_DOT":4.2e-07,"MEAN_MOTION_DDOT":0.0},{"OBJECT_NAME":"ONEWEB-0419","OBJECT_ID":"2021-132AB","EPOCH":"2026-04-12T02:50:18.509856","MEAN_MOTION":13.18686767,"ECCENTRICITY":0.0001587,"INCLINATION":87.9228,"RA_OF_ASC_NODE":348.59,"ARG_OF_PERICENTER":73.5973,"MEAN_ANOMALY":286.5333,"EPHEMERIS_TYPE":0,"CLASSIFICATION_TYPE":"U","NORAD_CAT_ID":50494,"ELEMENT_SET_NO":999,"REV_AT_EPOCH":21287,"BSTAR":0.00023208000000000001,"MEAN_MOTION_DOT":1.04e-06,"MEAN_MOTION_DDOT":0.0},{"OBJECT_NAME":"ONEWEB-0420","OBJECT_ID":"2021-132AC","EPOCH":"2026-04-12T03:49:41.984544","MEAN_MOTION":13.1868751,"ECCENTRICITY":0.0001967,"INCLINATION":87.9221,"RA_OF_ASC_NODE":348.5909,"ARG_OF_PERICENTER":78.6854,"MEAN_ANOMALY":281.4499,"EPHEMERIS_TYPE":0,"CLASSIFICATION_TYPE":"U","NORAD_CAT_ID":50495,"ELEMENT_SET_NO":999,"REV_AT_EPOCH":21287,"BSTAR":9.1962e-05,"MEAN_MOTION_DOT":4.9e-07,"MEAN_MOTION_DDOT":0.0},{"OBJECT_NAME":"ONEWEB-0421","OBJECT_ID":"2021-132AD","EPOCH":"2026-04-12T01:50:56.736384","MEAN_MOTION":13.18685046,"ECCENTRICITY":0.0001821,"INCLINATION":87.9228,"RA_OF_ASC_NODE":348.6017,"ARG_OF_PERICENTER":93.1487,"MEAN_ANOMALY":266.9853,"EPHEMERIS_TYPE":0,"CLASSIFICATION_TYPE":"U","NORAD_CAT_ID":50496,"ELEMENT_SET_NO":999,"REV_AT_EPOCH":21290,"BSTAR":6.7067e-05,"MEAN_MOTION_DOT":3.9e-07,"MEAN_MOTION_DDOT":0.0},{"OBJECT_NAME":"ONEWEB-0424","OBJECT_ID":"2021-132AE","EPOCH":"2026-04-12T02:43:11.834688","MEAN_MOTION":13.18685533,"ECCENTRICITY":0.0001676,"INCLINATION":87.9229,"RA_OF_ASC_NODE":348.5902,"ARG_OF_PERICENTER":69.865,"MEAN_ANOMALY":290.2663,"EPHEMERIS_TYPE":0,"CLASSIFICATION_TYPE":"U","NORAD_CAT_ID":50497,"ELEMENT_SET_NO":999,"REV_AT_EPOCH":21293,"BSTAR":0.0002053,"MEAN_MOTION_DOT":9.4e-07,"MEAN_MOTION_DDOT":0.0},{"OBJECT_NAME":"ONEWEB-0426","OBJECT_ID":"2021-132AF","EPOCH":"2026-04-12T03:35:25.479744","MEAN_MOTION":13.18690163,"ECCENTRICITY":0.0001437,"INCLINATION":87.9239,"RA_OF_ASC_NODE":348.5752,"ARG_OF_PERICENTER":105.2867,"MEAN_ANOMALY":254.8424,"EPHEMERIS_TYPE":0,"CLASSIFICATION_TYPE":"U","NORAD_CAT_ID":50498,"ELEMENT_SET_NO":999,"REV_AT_EPOCH":21288,"BSTAR":4.0732e-05,"MEAN_MOTION_DOT":2.9e-07,"MEAN_MOTION_DDOT":0.0},{"OBJECT_NAME":"ONEWEB-0427","OBJECT_ID":"2021-132AG","EPOCH":"2026-04-12T02:40:48.387360","MEAN_MOTION":13.18684164,"ECCENTRICITY":0.0001551,"INCLINATION":87.9228,"RA_OF_ASC_NODE":348.5694,"ARG_OF_PERICENTER":82.5939,"MEAN_ANOMALY":277.5369,"EPHEMERIS_TYPE":0,"CLASSIFICATION_TYPE":"U","NORAD_CAT_ID":50499,"ELEMENT_SET_NO":999,"REV_AT_EPOCH":21290,"BSTAR":-1.3441e-05,"MEAN_MOTION_DOT":8e-08,"MEAN_MOTION_DDOT":0.0}]