ONEWEB-0404             
1 50484U 21132R   26102.25851161  .00000630  00000+0  17420-2 0  9994
2 50484  87.8910  34.1733 0001540  81.6168 278.5135 13.11416208207059
ONEWEB-0405             
1 50485U 21132S   26102.11991940  .00000031  00000+0  45307-4 0  9992
2 50485  87.9231 348.5730 0001749  63.5821 296.5491 13.18688128213288
ONEWEB-0406             
1 50486U 21132T   26102.11002018 -.00000176  00000+0 -47831-3 0  9997
2 50486  87.9219 348.5973 0001330  87.8732 272.2552 13.18685583212910
ONEWEB-0407             
1 50487U 21132U   26102.10342443  .00000053  00000+0  10183-3 0  9998
2 50487  87.9230 348.5853 0001975  79.9699 280.1656 13.18684558212857
ONEWEB-0409             
1 50488U 21132V   26102.25681811  .00000609  00000+0  16815-2 0  9994
2 50488  87.8919  34.1571 0001593  77.9459 282.1848 13.11416096206945
ONEWEB-0412             
1 50489U 21132W   26102.09188018 -.00000200  00000+0 -53974-3 0  9995
2 50489  87.9219 348.5995 0001974  87.6902 272.4456 13.18685823212943
ONEWEB-0413             
1 50490U 21132X   26102.09683236  .00000057  00000+0  11150-3 0  9997
2 50490  87.9217 348.6009 0002062  84.3980 275.7387 13.18684043212884
ONEWEB-0414             
1 50491U 21132Y   26102.08198708  .00000060  00000+0  12065-3 0  9992
2 50491  87.9227 348.5789 0001761  86.2814 273.8520 13.18684234212916
ONEWEB-0417             
1 50492U 21132Z   26102.09022884 -.00000001  00000+0 -36203-4 0  9993
2 50492  87.9220 348.6024 0001535  81.5600 278.5706 13.18687916212898
ONEWEB-0418             
1 50493U 21132AA  26102.09999804  .00000042  00000+0  73456-4 0  9993
2 50493  87.9227 348.5937 0001397  82.7165 277.4126 13.18687581212952
ONEWEB-0419             
1 50494U 21132AB  26102.11826979  .00000104  00000+0  23208-3 0  9997
2 50494  87.9228 348.5900 0001587  73.5973 286.5333 13.18686767212877
ONEWEB-0420             
1 50495U 21132AC  26102.15951371  .00000049  00000+0  91962-4 0  9998
2 50495  87.9221 348.5909 0001967  78.6854 281.4499 13.18687510212870
ONEWEB-0421             
1 50496U 21132AD  26102.07704556  .00000039  00000+0  67067-4 0  9999
2 50496  87.9228 348.6017 0001821  93.1487 266.9853 13.18685046212900
ONEWEB-0424             
1 50497U 21132AE  26102.11333142  .00000094  00000+0  20530-3 0  9998
2 50497  87.9229 348.5902 0001676  69.8650 290.2663 13.18685533212937
ONEWEB-0426             
1 50498U 21132AF  26102.14960046  .00000029  00000+0  40732-4 0  9996
2 50498  87.9239 348.5752 0001437 105.2867 254.8424 13.18690163212882
ONEWEB-0427             
1 50499U 21132AG  26102.11167115  .00000008  00000+0 -13441-4 0  9995
2 50499  87.9228 348.5694 0001551  82.5939 277.5369 13.18684164212907
